*******************************************************************************
Ephemeris / WWW_USER Mon Mar 26 22:18:20 2018 Pasadena, USA      / Horizons    
*******************************************************************************
Target body name: Nix (902)                       {source: plu055l_merged}
Center body name: Solar System Barycenter (0)     {source: DE431mx}
Center-site name: BODY CENTER
*******************************************************************************
Start time      : A.D. 2000-Jan-01 00:00:00.0000 TDB
Stop  time      : A.D. 2005-Jan-01 00:00:00.0000 TDB
Step-size       : 7200 minutes
*******************************************************************************
Center geodetic : 0.00000000,0.00000000,0.0000000 {E-lon(deg),Lat(deg),Alt(km)}
Center cylindric: 0.00000000,0.00000000,0.0000000 {E-lon(deg),Dxy(km),Dz(km)}
Center radii    : (undefined)                                                  
Output units    : AU-D                                                         
Output type     : GEOMETRIC cartesian states
Output format   : 2 (position and velocity)
Reference frame : ICRF/J2000.0                                                 
Coordinate systm: Ecliptic and Mean Equinox of Reference Epoch                 
*******************************************************************************
JDTDB
   X     Y     Z
   VX    VY    VZ
*******************************************************************************
$$SOE
2451964.500000000 = A.D. 2001-Feb-24 00:00:00.0000 TDB 
  -8.600960357701444E+00 -2.858334398909700E+01  5.546711517946655E+00
   3.115999486237602E-03 -1.354802041200576E-03 -7.059793283420466E-04
2451969.500000000 = A.D. 2001-Mar-01 00:00:00.0000 TDB 
  -8.585304934992672E+00 -2.859017652025544E+01  5.542951667889208E+00
   3.130446983208128E-03 -1.392467399358815E-03 -7.934004714584143E-04
2451974.500000000 = A.D. 2001-Mar-06 00:00:00.0000 TDB 
  -8.569787472978984E+00 -2.859733047857544E+01  5.538907772275572E+00
   3.068633662164894E-03 -1.464992072173723E-03 -8.037825391864141E-04
2451979.500000000 = A.D. 2001-Mar-11 00:00:00.0000 TDB 
  -8.554598731068664E+00 -2.860470546097185E+01  5.535072981174111E+00
   3.017077482494110E-03 -1.468328172614347E-03 -7.212284622230934E-04
2451984.500000000 = A.D. 2001-Mar-16 00:00:00.0000 TDB 
  -8.539467873449638E+00 -2.861188238859672E+01  5.531646596662000E+00
   3.049063028984160E-03 -1.396055314235873E-03 -6.631343194789749E-04
2451989.500000000 = A.D. 2001-Mar-21 00:00:00.0000 TDB 
  -8.524039303326285E+00 -2.861870913911076E+01  5.528252703123797E+00
   3.120142041082844E-03 -1.346798530438863E-03 -7.100150614261629E-04
2451994.500000000 = A.D. 2001-Mar-26 00:00:00.0000 TDB 
  -8.508370621482054E+00 -2.862550994082575E+01  5.524472374198480E+00
   3.132354502782567E-03 -1.386554769901156E-03 -7.968970091939644E-04
2451999.500000000 = A.D. 2001-Mar-31 00:00:00.0000 TDB 
  -8.492851147517321E+00 -2.863263649561738E+01  5.520420624742572E+00
   3.068962817414531E-03 -1.458713838574682E-03 -8.039539360762359E-04
2452004.500000000 = A.D. 2001-Apr-05 00:00:00.0000 TDB 
  -8.477658701215404E+00 -2.863997462833970E+01  5.516590103308071E+00
   3.019555543482150E-03 -1.459104361278787E-03 -7.204373348146710E-04
2452009.500000000 = A.D. 2001-Apr-10 00:00:00.0000 TDB 
  -8.462511761339707E+00 -2.864710304212176E+01  5.513165056890156E+00
   3.053544995960200E-03 -1.386119305675139E-03 -6.647008563368545E-04
2452014.500000000 = A.D. 2001-Apr-15 00:00:00.0000 TDB 
  -8.447062000170018E+00 -2.865388528026618E+01  5.509757171393021E+00
   3.124262723037247E-03 -1.339090609516383E-03 -7.145230090910955E-04
2452019.500000000 = A.D. 2001-Apr-20 00:00:00.0000 TDB 
  -8.431380670581717E+00 -2.866065463130824E+01  5.505956796435814E+00
   3.133696252327320E-03 -1.381442029762796E-03 -8.007261057613745E-04
2452024.500000000 = A.D. 2001-Apr-25 00:00:00.0000 TDB 
  -8.415859188484264E+00 -2.866775351695161E+01  5.501897435036930E+00
   3.069106644786389E-03 -1.452655466779914E-03 -8.041928353492720E-04
2452029.500000000 = A.D. 2001-Apr-30 00:00:00.0000 TDB 
  -8.400663128958014E+00 -2.867505427569785E+01  5.498071991768718E+00
   3.021564490092085E-03 -1.450688146517990E-03 -7.201596012667445E-04
2452034.500000000 = A.D. 2001-May-05 00:00:00.0000 TDB 
  -8.385499581787755E+00 -2.868213398591230E+01  5.494647486824836E+00
   3.057727392255347E-03 -1.376517170235787E-03 -6.663171686588827E-04
2452039.500000000 = A.D. 2001-May-10 00:00:00.0000 TDB 
  -8.370028766862147E+00 -2.868887184382657E+01  5.491225451039867E+00
   3.127916718719812E-03 -1.331933287242705E-03 -7.191370004829855E-04
2452044.500000000 = A.D. 2001-May-15 00:00:00.0000 TDB 
  -8.354335131962172E+00 -2.869560994920789E+01  5.487405112252013E+00
   3.134534629534580E-03 -1.376558701063458E-03 -8.040828886633858E-04
2452049.500000000 = A.D. 2001-May-20 00:00:00.0000 TDB 
  -8.338811849876679E+00 -2.870268110586856E+01  5.483338409730671E+00
   3.068907934239066E-03 -1.446755968410057E-03 -8.041272988213796E-04
2452054.500000000 = A.D. 2001-May-25 00:00:00.0000 TDB 
  -8.323611749672121E+00 -2.870994365155684E+01  5.479518454585630E+00
   3.023034564516045E-03 -1.442235504933009E-03 -7.189225954962715E-04
2452059.500000000 = A.D. 2001-May-30 00:00:00.0000 TDB 
  -8.308431557839357E+00 -2.871697497420823E+01  5.476093735145874E+00
   3.061722154636088E-03 -1.366965485479885E-03 -6.677240113131252E-04
2452064.500000000 = A.D. 2001-Jun-04 00:00:00.0000 TDB 
  -8.292939615706604E+00 -2.872366845253521E+01  5.472657236833675E+00
   3.130912428898829E-03 -1.324959741898957E-03 -7.229356935595736E-04
2452069.500000000 = A.D. 2001-Jun-09 00:00:00.0000 TDB 
  -8.277234280120007E+00 -2.873037586341570E+01  5.468816918951126E+00
   3.135273806499855E-03 -1.371440636311262E-03 -8.069284836561555E-04
2452074.500000000 = A.D. 2001-Jun-14 00:00:00.0000 TDB 
  -8.261709417067605E+00 -2.873741920832069E+01  5.464743200910537E+00
   3.068519741843943E-03 -1.440678629556478E-03 -8.034847919743461E-04
2452079.500000000 = A.D. 2001-Jun-19 00:00:00.0000 TDB 
  -8.246504960918873E+00 -2.874464310247877E+01  5.460928698411376E+00
   3.024844003118097E-03 -1.433058547087473E-03 -7.171542705956760E-04
2452084.500000000 = A.D. 2001-Jun-24 00:00:00.0000 TDB 
  -8.231308193492907E+00 -2.875162612974323E+01  5.457503554261469E+00
   3.065828843055238E-03 -1.357174561304221E-03 -6.689788396000094E-04
2452089.500000000 = A.D. 2001-Jun-29 00:00:00.0000 TDB 
  -8.215795031363720E+00 -2.875827553329016E+01  5.454051762143441E+00
   3.134185056280401E-03 -1.317264931377491E-03 -7.260984497582560E-04
2452094.500000000 = A.D. 2001-Jul-04 00:00:00.0000 TDB 
  -8.200078866739030E+00 -2.876495264365946E+01  5.450192166463879E+00
   3.136181505221887E-03 -1.365991667765035E-03 -8.095752368134031E-04
2452099.500000000 = A.D. 2001-Jul-09 00:00:00.0000 TDB 
  -8.184552565674029E+00 -2.877196809298428E+01  5.446111629275822E+00
   3.068483720764128E-03 -1.433994467237197E-03 -8.025211780661602E-04
2452104.500000000 = A.D. 2001-Jul-14 00:00:00.0000 TDB 
  -8.169343786716182E+00 -2.877915309608975E+01  5.442302834331922E+00
   3.027111854931243E-03 -1.423532087130239E-03 -7.156618373110691E-04
2452109.500000000 = A.D. 2001-Jul-19 00:00:00.0000 TDB 
  -8.154130334283066E+00 -2.878608765199893E+01  5.438877173108534E+00
   3.070304418103097E-03 -1.347075681922724E-03 -6.704193985900878E-04
2452114.500000000 = A.D. 2001-Jul-24 00:00:00.0000 TDB 
  -8.138596241546187E+00 -2.879269362522392E+01  5.435409377679808E+00
   3.138091536583559E-03 -1.309407996389881E-03 -7.301419131723866E-04
2452119.500000000 = A.D. 2001-Jul-29 00:00:00.0000 TDB 
  -8.122869718360775E+00 -2.879934044287264E+01  5.431531126343896E+00
   3.137233568379191E-03 -1.360454514377736E-03 -8.123695164367251E-04
2452124.500000000 = A.D. 2001-Aug-03 00:00:00.0000 TDB 
  -8.107342437916085E+00 -2.880632816291120E+01  5.427444116115314E+00
   3.069218576188840E-03 -1.426859445697649E-03 -8.022153248773101E-04
2452129.500000000 = A.D. 2001-Aug-08 00:00:00.0000 TDB 
  -8.092129000168892E+00 -2.881347357982696E+01  5.423641371774226E+00
   3.029559138670498E-03 -1.414099275607997E-03 -7.146685955145077E-04
2452134.500000000 = A.D. 2001-Aug-13 00:00:00.0000 TDB 
  -8.076898812738088E+00 -2.882035963338357E+01  5.420214973774478E+00
   3.075053739520415E-03 -1.336999036535987E-03 -6.724085322821511E-04
2452139.500000000 = A.D. 2001-Aug-18 00:00:00.0000 TDB 
  -8.061344105406405E+00 -2.882692249987771E+01  5.416731026827108E+00
   3.141838871341628E-03 -1.302105714541795E-03 -7.348326387599862E-04
2452144.500000000 = A.D. 2001-Aug-23 00:00:00.0000 TDB 
  -8.045607472631042E+00 -2.883353910779713E+01  5.412834236446502E+00
   3.138172751120752E-03 -1.355165959040459E-03 -8.154025082159139E-04
2452149.500000000 = A.D. 2001-Aug-28 00:00:00.0000 TDB 
  -8.030079862014773E+00 -2.884049907343724E+01  5.408741738150992E+00
   3.069728757945749E-03 -1.420372722704638E-03 -8.025935177808500E-04
2452154.500000000 = A.D. 2001-Sep-02 00:00:00.0000 TDB 
  -8.014861015799093E+00 -2.884760417765976E+01  5.404944718729048E+00
   3.031896174211801E-03 -1.404936060839587E-03 -7.139514659197995E-04
2452159.500000000 = A.D. 2001-Sep-07 00:00:00.0000 TDB 
  -7.999614147118726E+00 -2.885444176257262E+01  5.401517442145177E+00
   3.079485076486121E-03 -1.327560684489578E-03 -6.749022058406076E-04
2452164.500000000 = A.D. 2001-Sep-12 00:00:00.0000 TDB 
  -7.984038964795273E+00 -2.886096173086363E+01  5.398017072551702E+00
   3.145112245440477E-03 -1.295215311262550E-03 -7.393937126474824E-04
2452169.500000000 = A.D. 2001-Sep-17 00:00:00.0000 TDB 
  -7.968292551675224E+00 -2.886754829663565E+01  5.394101865123612E+00
   3.138719916619868E-03 -1.350274746992672E-03 -8.184260218216960E-04
